[{"OBJECT_NAME":"OBJECT D","OBJECT_ID":"2024-174D","EPOCH":"2026-03-10T00:15:10.483200","MEAN_MOTION":15.28039787,"ECCENTRICITY":0.00110644,"INCLINATION":97.4441,"RA_OF_ASC_NODE":80.4677,"ARG_OF_PERICENTER":212.9968,"MEAN_ANOMALY":147.0582,"EPHEMERIS_TYPE":0,"CLASSIFICATION_TYPE":"U","NORAD_CAT_ID":61241,"ELEMENT_SET_NO":999,"REV_AT_EPOCH":8076,"BSTAR":0.00036340099,"MEAN_MOTION_DOT":9.884e-5,"MEAN_MOTION_DDOT":0},{"OBJECT_NAME":"STARLINK-32606","OBJECT_ID":"2024-210V","EPOCH":"2026-03-08T07:46:58.635264","MEAN_MOTION":15.27608245,"ECCENTRICITY":0.00022434,"INCLINATION":43.0008,"RA_OF_ASC_NODE":187.3144,"ARG_OF_PERICENTER":295.6512,"MEAN_ANOMALY":64.4108,"EPHEMERIS_TYPE":0,"CLASSIFICATION_TYPE":"U","NORAD_CAT_ID":61978,"ELEMENT_SET_NO":999,"REV_AT_EPOCH":7467,"BSTAR":0.0014874755,"MEAN_MOTION_DOT":0.00040934,"MEAN_MOTION_DDOT":0}]
